{"type": "FeatureCollection", "features": [{"type": "Feature", "properties": {"name_en": "Affluence · stop 080", "name_zh": "澤豐", "stop_name_en": "Affluence", "stop_code": "AFF", "stop_id": "80", "ref": "080", "platform_key": "lrt_AFF_080_0", "mode": "lrt", "station_code": "AFF"}, "geometry": {"type": "Point", "coordinates": [113.975831, 22.4035202]}}, {"type": "Feature", "properties": {"name_en": "Affluence · stop 080", "name_zh": "澤豐", "stop_name_en": "Affluence", "stop_code": "AFF", "stop_id": "80", "ref": "080", "platform_key": "lrt_AFF_080_1", "mode": "lrt", "station_code": "AFF"}, "geometry": {"type": "Point", "coordinates": [113.9758686, 22.4035116]}}, {"type": "Feature", "properties": {"name_en": "Butterfly · stop 015", "name_zh": "蝴蝶", "stop_name_en": "Butterfly", "stop_code": "BUT", "stop_id": "15", "ref": "015", "platform_key": "lrt_BUT_015_0", "mode": "lrt", "station_code": "BUT"}, "geometry": {"type": "Point", "coordinates": [113.9617525, 22.3781351]}}, {"type": "Feature", "properties": {"name_en": "Butterfly · stop 015", "name_zh": "蝴蝶", "stop_name_en": "Butterfly", "stop_code": "BUT", "stop_id": "15", "ref": "015", "platform_key": "lrt_BUT_015_1", "mode": "lrt", "station_code": "BUT"}, "geometry": {"type": "Point", "coordinates": [113.9617261, 22.378153]}}, {"type": "Feature", "properties": {"name_en": "Chestwood · stop 490", "name_zh": "翠湖", "stop_name_en": "Chestwood", "stop_code": "CHE", "stop_id": "490", "ref": "490", "platform_key": "lrt_CHE_490_0", "mode": "lrt", "station_code": "CHE"}, "geometry": {"type": "Point", "coordinates": [113.9995899, 22.4596684]}}, {"type": "Feature", "properties": {"name_en": "Chestwood · stop 490", "name_zh": "翠湖", "stop_name_en": "Chestwood", "stop_code": "CHE", "stop_id": "490", "ref": "490", "platform_key": "lrt_CHE_490_1", "mode": "lrt", "station_code": "CHE"}, "geometry": {"type": "Point", "coordinates": [113.9995715, 22.4597012]}}, {"type": "Feature", "properties": {"name_en": "Ching Chung · stop 120", "name_zh": "青松", "stop_name_en": "Ching Chung", "stop_code": "CHC", "stop_id": "120", "ref": "120", "platform_key": "lrt_CHC_120_0", "mode": "lrt", "station_code": "CHC"}, "geometry": {"type": "Point", "coordinates": [113.9725636, 22.4073283]}}, {"type": "Feature", "properties": {"name_en": "Ching Chung · stop 120", "name_zh": "青松", "stop_name_en": "Ching Chung", "stop_code": "CHC", "stop_id": "120", "ref": "120", "platform_key": "lrt_CHC_120_1", "mode": "lrt", "station_code": "CHC"}, "geometry": {"type": "Point", "coordinates": [113.9725555, 22.4073625]}}, {"type": "Feature", "properties": {"name_en": "Choy Yee Bridge · stop 075", "name_zh": "蔡意橋", "stop_name_en": "Choy Yee Bridge", "stop_code": "CYB", "stop_id": "75", "ref": "075", "platform_key": "lrt_CYB_075_0", "mode": "lrt", "station_code": "CYB"}, "geometry": {"type": "Point", "coordinates": [113.9741138, 22.3998135]}}, {"type": "Feature", "properties": {"name_en": "Choy Yee Bridge · stop 075", "name_zh": "蔡意橋", "stop_name_en": "Choy Yee Bridge", "stop_code": "CYB", "stop_id": "75", "ref": "075", "platform_key": "lrt_CYB_075_1", "mode": "lrt", "station_code": "CYB"}, "geometry": {"type": "Point", "coordinates": [113.9745756, 22.4003342]}}, {"type": "Feature", "properties": {"name_en": "Chung Fu · stop 468", "name_zh": "頌富", "stop_name_en": "Chung Fu", "stop_code": "CHF", "stop_id": "468", "ref": "468", "platform_key": "lrt_CHF_468_0", "mode": "lrt", "station_code": "CHF"}, "geometry": {"type": "Point", "coordinates": [113.9970051, 22.4619992]}}, {"type": "Feature", "properties": {"name_en": "Chung Fu · stop 468", "name_zh": "頌富", "stop_name_en": "Chung Fu", "stop_code": "CHF", "stop_id": "468", "ref": "468", "platform_key": "lrt_CHF_468_1", "mode": "lrt", "station_code": "CHF"}, "geometry": {"type": "Point", "coordinates": [113.9969703, 22.4620153]}}, {"type": "Feature", "properties": {"name_en": "Chung Uk Tsuen · stop 370", "name_zh": "鍾屋村", "stop_name_en": "Chung Uk Tsuen", "stop_code": "CUT", "stop_id": "370", "ref": "370", "platform_key": "lrt_CUT_370_0", "mode": "lrt", "station_code": "CUT"}, "geometry": {"type": "Point", "coordinates": [113.9922253, 22.4296735]}}, {"type": "Feature", "properties": {"name_en": "Chung Uk Tsuen · stop 370", "name_zh": "鍾屋村", "stop_name_en": "Chung Uk Tsuen", "stop_code": "CUT", "stop_id": "370", "ref": "370", "platform_key": "lrt_CUT_370_1", "mode": "lrt", "station_code": "CUT"}, "geometry": {"type": "Point", "coordinates": [113.9922035, 22.4296983]}}, {"type": "Feature", "properties": {"name_en": "Fung Nin Road · stop 570", "name_zh": "豐年路", "stop_name_en": "Fung Nin Road", "stop_code": "FNR", "stop_id": "570", "ref": "570", "platform_key": "lrt_FNR_570_0", "mode": "lrt", "station_code": "FNR"}, "geometry": {"type": "Point", "coordinates": [114.0238842, 22.4445455]}}, {"type": "Feature", "properties": {"name_en": "Fung Nin Road · stop 570", "name_zh": "豐年路", "stop_name_en": "Fung Nin Road", "stop_code": "FNR", "stop_id": "570", "ref": "570", "platform_key": "lrt_FNR_570_1", "mode": "lrt", "station_code": "FNR"}, "geometry": {"type": "Point", "coordinates": [114.0238837, 22.4445167]}}, {"type": "Feature", "properties": {"name_en": "Fung Tei · stop 340", "name_zh": "鳳地", "stop_name_en": "Fung Tei", "stop_code": "FUT", "stop_id": "340", "ref": "340", "platform_key": "lrt_FUT_340_0", "mode": "lrt", "station_code": "FUT"}, "geometry": {"type": "Point", "coordinates": [113.9787706, 22.4067658]}}, {"type": "Feature", "properties": {"name_en": "Fung Tei · stop 340", "name_zh": "鳳地", "stop_name_en": "Fung Tei", "stop_code": "FUT", "stop_id": "340", "ref": "340", "platform_key": "lrt_FUT_340_1", "mode": "lrt", "station_code": "FUT"}, "geometry": {"type": "Point", "coordinates": [113.978811, 22.4067586]}}, {"type": "Feature", "properties": {"name_en": "Ginza · stop 455", "name_zh": "銀座", "stop_name_en": "Ginza", "stop_code": "GIN", "stop_id": "455", "ref": "455", "platform_key": "lrt_GIN_455_0", "mode": "lrt", "station_code": "GIN"}, "geometry": {"type": "Point", "coordinates": [114.0049707, 22.4575666]}}, {"type": "Feature", "properties": {"name_en": "Ginza · stop 455", "name_zh": "銀座", "stop_name_en": "Ginza", "stop_code": "GIN", "stop_id": "455", "ref": "455", "platform_key": "lrt_GIN_455_1", "mode": "lrt", "station_code": "GIN"}, "geometry": {"type": "Point", "coordinates": [114.0049475, 22.4575383]}}, {"type": "Feature", "properties": {"name_en": "Goodview Garden · stop 260", "name_zh": "豐景園", "stop_name_en": "Goodview Garden", "stop_code": "GOG", "stop_id": "260", "ref": "260", "platform_key": "lrt_GOG_260_0", "mode": "lrt", "station_code": "GOG"}, "geometry": {"type": "Point", "coordinates": [113.9730445, 22.3832794]}}, {"type": "Feature", "properties": {"name_en": "Goodview Garden · stop 260", "name_zh": "豐景園", "stop_name_en": "Goodview Garden", "stop_code": "GOG", "stop_id": "260", "ref": "260", "platform_key": "lrt_GOG_260_1", "mode": "lrt", "station_code": "GOG"}, "geometry": {"type": "Point", "coordinates": [113.9730479, 22.3833279]}}, {"type": "Feature", "properties": {"name_en": "Hang Mei Tsuen · stop 425", "name_zh": "坑尾村", "stop_name_en": "Hang Mei Tsuen", "stop_code": "HMT", "stop_id": "425", "ref": "425", "platform_key": "lrt_HMT_425_0", "mode": "lrt", "station_code": "HMT"}, "geometry": {"type": "Point", "coordinates": [114.0055761, 22.4451033]}}, {"type": "Feature", "properties": {"name_en": "Hang Mei Tsuen · stop 425", "name_zh": "坑尾村", "stop_name_en": "Hang Mei Tsuen", "stop_code": "HMT", "stop_id": "425", "ref": "425", "platform_key": "lrt_HMT_425_1", "mode": "lrt", "station_code": "HMT"}, "geometry": {"type": "Point", "coordinates": [114.0056138, 22.4451156]}}, {"type": "Feature", "properties": {"name_en": "Ho Tin · stop 070", "name_zh": "河田", "stop_name_en": "Ho Tin", "stop_code": "HOT", "stop_id": "70", "ref": "070", "platform_key": "lrt_HOT_070_0", "mode": "lrt", "station_code": "HOT"}, "geometry": {"type": "Point", "coordinates": [113.9728873, 22.3967567]}}, {"type": "Feature", "properties": {"name_en": "Ho Tin · stop 070", "name_zh": "河田", "stop_name_en": "Ho Tin", "stop_code": "HOT", "stop_id": "70", "ref": "070", "platform_key": "lrt_HOT_070_1", "mode": "lrt", "station_code": "HOT"}, "geometry": {"type": "Point", "coordinates": [113.9731181, 22.397448]}}, {"type": "Feature", "properties": {"name_en": "Hoh Fuk Tong · stop 310", "name_zh": "何福堂", "stop_name_en": "Hoh Fuk Tong", "stop_code": "HFT", "stop_id": "310", "ref": "310", "platform_key": "lrt_HFT_310_0", "mode": "lrt", "station_code": "HFT"}, "geometry": {"type": "Point", "coordinates": [113.9774588, 22.3974043]}}, {"type": "Feature", "properties": {"name_en": "Hoh Fuk Tong · stop 310", "name_zh": "何福堂", "stop_name_en": "Hoh Fuk Tong", "stop_code": "HFT", "stop_id": "310", "ref": "310", "platform_key": "lrt_HFT_310_1", "mode": "lrt", "station_code": "HFT"}, "geometry": {"type": "Point", "coordinates": [113.9774907, 22.3974112]}}, {"type": "Feature", "properties": {"name_en": "Hoi Wong Road · stop 250", "name_zh": "海皇路", "stop_name_en": "Hoi Wong Road", "stop_code": "TSP", "stop_id": "250", "ref": "250", "platform_key": "lrt_TSP_250_0", "mode": "lrt", "station_code": "TSP"}, "geometry": {"type": "Point", "coordinates": [113.9703882, 22.3811755]}}, {"type": "Feature", "properties": {"name_en": "Hoi Wong Road · stop 250", "name_zh": "海皇路", "stop_name_en": "Hoi Wong Road", "stop_code": "TSP", "stop_id": "250", "ref": "250", "platform_key": "lrt_TSP_250_1", "mode": "lrt", "station_code": "TSP"}, "geometry": {"type": "Point", "coordinates": [113.9703558, 22.3812447]}}, {"type": "Feature", "properties": {"name_en": "Hong Lok Road · stop 580", "name_zh": "康樂路", "stop_name_en": "Hong Lok Road", "stop_code": "HLR", "stop_id": "580", "ref": "580", "platform_key": "lrt_HLR_580_0", "mode": "lrt", "station_code": "HLR"}, "geometry": {"type": "Point", "coordinates": [114.0273253, 22.4444841]}}, {"type": "Feature", "properties": {"name_en": "Hong Lok Road · stop 580", "name_zh": "康樂路", "stop_name_en": "Hong Lok Road", "stop_code": "HLR", "stop_id": "580", "ref": "580", "platform_key": "lrt_HLR_580_1", "mode": "lrt", "station_code": "HLR"}, "geometry": {"type": "Point", "coordinates": [114.0266578, 22.444527]}}, {"type": "Feature", "properties": {"name_en": "Hung Shui Kiu · stop 380", "name_zh": "洪水橋", "stop_name_en": "Hung Shui Kiu", "stop_code": "HSK", "stop_id": "380", "ref": "380", "platform_key": "lrt_HSK_380_0", "mode": "lrt", "station_code": "HSK"}, "geometry": {"type": "Point", "coordinates": [113.9974676, 22.4336358]}}, {"type": "Feature", "properties": {"name_en": "Hung Shui Kiu · stop 380", "name_zh": "洪水橋", "stop_name_en": "Hung Shui Kiu", "stop_code": "HSK", "stop_id": "380", "ref": "380", "platform_key": "lrt_HSK_380_1", "mode": "lrt", "station_code": "HSK"}, "geometry": {"type": "Point", "coordinates": [113.9974391, 22.4336572]}}, {"type": "Feature", "properties": {"name_en": "Kei Lun · stop 110", "name_zh": "麒麟", "stop_name_en": "Kei Lun", "stop_code": "KEL", "stop_id": "110", "ref": "110", "platform_key": "lrt_KEL_110_0", "mode": "lrt", "station_code": "KEL"}, "geometry": {"type": "Point", "coordinates": [113.9763956, 22.4103997]}}, {"type": "Feature", "properties": {"name_en": "Kei Lun · stop 110", "name_zh": "麒麟", "stop_name_en": "Kei Lun", "stop_code": "KEL", "stop_id": "110", "ref": "110", "platform_key": "lrt_KEL_110_1", "mode": "lrt", "station_code": "KEL"}, "geometry": {"type": "Point", "coordinates": [113.9763848, 22.4110146]}}, {"type": "Feature", "properties": {"name_en": "Kin On · stop 060", "name_zh": "建安", "stop_name_en": "Kin On", "stop_code": "KIO", "stop_id": "60", "ref": "060", "platform_key": "lrt_KIO_060_0", "mode": "lrt", "station_code": "KIO"}, "geometry": {"type": "Point", "coordinates": [113.9688962, 22.3951593]}}, {"type": "Feature", "properties": {"name_en": "Kin On · stop 060", "name_zh": "建安", "stop_name_en": "Kin On", "stop_code": "KIO", "stop_id": "60", "ref": "060", "platform_key": "lrt_KIO_060_1", "mode": "lrt", "station_code": "KIO"}, "geometry": {"type": "Point", "coordinates": [113.9689046, 22.3951896]}}, {"type": "Feature", "properties": {"name_en": "Kin Sang · stop 130", "name_zh": "建生", "stop_name_en": "Kin Sang", "stop_code": "KIS", "stop_id": "130", "ref": "130", "platform_key": "lrt_KIS_130_0", "mode": "lrt", "station_code": "KIS"}, "geometry": {"type": "Point", "coordinates": [113.9692039, 22.4067815]}}, {"type": "Feature", "properties": {"name_en": "Kin Sang · stop 130", "name_zh": "建生", "stop_name_en": "Kin Sang", "stop_code": "KIS", "stop_id": "130", "ref": "130", "platform_key": "lrt_KIS_130_1", "mode": "lrt", "station_code": "KIS"}, "geometry": {"type": "Point", "coordinates": [113.9691898, 22.4067479]}}, {"type": "Feature", "properties": {"name_en": "Lam Tei · stop 350", "name_zh": "藍地", "stop_name_en": "Lam Tei", "stop_code": "LTE", "stop_id": "350", "ref": "350", "platform_key": "lrt_LTE_350_0", "mode": "lrt", "station_code": "LTE"}, "geometry": {"type": "Point", "coordinates": [113.9817121, 22.4184953]}}, {"type": "Feature", "properties": {"name_en": "Lam Tei · stop 350", "name_zh": "藍地", "stop_name_en": "Lam Tei", "stop_code": "LTE", "stop_id": "350", "ref": "350", "platform_key": "lrt_LTE_350_1", "mode": "lrt", "station_code": "LTE"}, "geometry": {"type": "Point", "coordinates": [113.9819948, 22.4188831]}}, {"type": "Feature", "properties": {"name_en": "Leung King · stop 150", "name_zh": "良景", "stop_name_en": "Leung King", "stop_code": "LEK", "stop_id": "150", "ref": "150", "platform_key": "lrt_LEK_150_0", "mode": "lrt", "station_code": "LEK"}, "geometry": {"type": "Point", "coordinates": [113.9635618, 22.40668]}}, {"type": "Feature", "properties": {"name_en": "Leung King · stop 150", "name_zh": "良景", "stop_name_en": "Leung King", "stop_code": "LEK", "stop_id": "150", "ref": "150", "platform_key": "lrt_LEK_150_1", "mode": "lrt", "station_code": "LEK"}, "geometry": {"type": "Point", "coordinates": [113.9635936, 22.4066563]}}, {"type": "Feature", "properties": {"name_en": "Light Rail Depot · stop 020", "name_zh": "輕鐵車廠", "stop_name_en": "Light Rail Depot", "stop_code": "LRD", "stop_id": "20", "ref": "020", "platform_key": "lrt_LRD_020_0", "mode": "lrt", "station_code": "LRD"}, "geometry": {"type": "Point", "coordinates": [113.9633523, 22.3818312]}}, {"type": "Feature", "properties": {"name_en": "Light Rail Depot · stop 020", "name_zh": "輕鐵車廠", "stop_name_en": "Light Rail Depot", "stop_code": "LRD", "stop_id": "20", "ref": "020", "platform_key": "lrt_LRD_020_1", "mode": "lrt", "station_code": "LRD"}, "geometry": {"type": "Point", "coordinates": [113.9633926, 22.3818228]}}, {"type": "Feature", "properties": {"name_en": "Locwood · stop 448", "name_zh": "樂湖", "stop_name_en": "Locwood", "stop_code": "LOC", "stop_id": "448", "ref": "448", "platform_key": "lrt_LOC_448_0", "mode": "lrt", "station_code": "LOC"}, "geometry": {"type": "Point", "coordinates": [114.0010998, 22.453067]}}, {"type": "Feature", "properties": {"name_en": "Locwood · stop 448", "name_zh": "樂湖", "stop_name_en": "Locwood", "stop_code": "LOC", "stop_id": "448", "ref": "448", "platform_key": "lrt_LOC_448_1", "mode": "lrt", "station_code": "LOC"}, "geometry": {"type": "Point", "coordinates": [114.0011278, 22.4530876]}}, {"type": "Feature", "properties": {"name_en": "Lung Mun · stop 030", "name_zh": "龍門", "stop_name_en": "Lung Mun", "stop_code": "LUM", "stop_id": "30", "ref": "030", "platform_key": "lrt_LUM_030_0", "mode": "lrt", "station_code": "LUM"}, "geometry": {"type": "Point", "coordinates": [113.9650155, 22.3852754]}}, {"type": "Feature", "properties": {"name_en": "Lung Mun · stop 030", "name_zh": "龍門", "stop_name_en": "Lung Mun", "stop_code": "LUM", "stop_id": "30", "ref": "030", "platform_key": "lrt_LUM_030_1", "mode": "lrt", "station_code": "LUM"}, "geometry": {"type": "Point", "coordinates": [113.9650567, 22.3852573]}}, {"type": "Feature", "properties": {"name_en": "Melody Garden · stop 010", "name_zh": "美樂", "stop_name_en": "Melody Garden", "stop_code": "MEG", "stop_id": "10", "ref": "010", "platform_key": "lrt_MEG_010_0", "mode": "lrt", "station_code": "MEG"}, "geometry": {"type": "Point", "coordinates": [113.9611818, 22.3750618]}}, {"type": "Feature", "properties": {"name_en": "Melody Garden · stop 010", "name_zh": "美樂", "stop_name_en": "Melody Garden", "stop_code": "MEG", "stop_id": "10", "ref": "010", "platform_key": "lrt_MEG_010_1", "mode": "lrt", "station_code": "MEG"}, "geometry": {"type": "Point", "coordinates": [113.961216, 22.3750842]}}, {"type": "Feature", "properties": {"name_en": "Ming Kum · stop 200", "name_zh": "鳴琴", "stop_name_en": "Ming Kum", "stop_code": "MIK", "stop_id": "200", "ref": "200", "platform_key": "lrt_MIK_200_0", "mode": "lrt", "station_code": "MIK"}, "geometry": {"type": "Point", "coordinates": [113.9672736, 22.397149]}}, {"type": "Feature", "properties": {"name_en": "Ming Kum · stop 200", "name_zh": "鳴琴", "stop_name_en": "Ming Kum", "stop_code": "MIK", "stop_id": "200", "ref": "200", "platform_key": "lrt_MIK_200_1", "mode": "lrt", "station_code": "MIK"}, "geometry": {"type": "Point", "coordinates": [113.9673172, 22.3971513]}}, {"type": "Feature", "properties": {"name_en": "Nai Wai · stop 360", "name_zh": "泥圍", "stop_name_en": "Nai Wai", "stop_code": "NAW", "stop_id": "360", "ref": "360", "platform_key": "lrt_NAW_360_0", "mode": "lrt", "station_code": "NAW"}, "geometry": {"type": "Point", "coordinates": [113.9863554, 22.4236166]}}, {"type": "Feature", "properties": {"name_en": "Nai Wai · stop 360", "name_zh": "泥圍", "stop_name_en": "Nai Wai", "stop_code": "NAW", "stop_id": "360", "ref": "360", "platform_key": "lrt_NAW_360_1", "mode": "lrt", "station_code": "NAW"}, "geometry": {"type": "Point", "coordinates": [113.986814, 22.424044]}}, {"type": "Feature", "properties": {"name_en": "Ngan Wai · stop 230", "name_zh": "銀圍", "stop_name_en": "Ngan Wai", "stop_code": "NGW", "stop_id": "230", "ref": "230", "platform_key": "lrt_NGW_230_0", "mode": "lrt", "station_code": "NGW"}, "geometry": {"type": "Point", "coordinates": [113.9748548, 22.4024199]}}, {"type": "Feature", "properties": {"name_en": "Ngan Wai · stop 230", "name_zh": "銀圍", "stop_name_en": "Ngan Wai", "stop_code": "NGW", "stop_id": "230", "ref": "230", "platform_key": "lrt_NGW_230_1", "mode": "lrt", "station_code": "NGW"}, "geometry": {"type": "Point", "coordinates": [113.9743705, 22.4026116]}}, {"type": "Feature", "properties": {"name_en": "On Ting · stop 270", "name_zh": "安定", "stop_name_en": "On Ting", "stop_code": "ONT", "stop_id": "270", "ref": "270", "platform_key": "lrt_ONT_270_0", "mode": "lrt", "station_code": "ONT"}, "geometry": {"type": "Point", "coordinates": [113.9751228, 22.3875741]}}, {"type": "Feature", "properties": {"name_en": "On Ting · stop 270", "name_zh": "安定", "stop_name_en": "On Ting", "stop_code": "ONT", "stop_id": "270", "ref": "270", "platform_key": "lrt_ONT_270_1", "mode": "lrt", "station_code": "ONT"}, "geometry": {"type": "Point", "coordinates": [113.9750826, 22.3875746]}}, {"type": "Feature", "properties": {"name_en": "Ping Shan · stop 400", "name_zh": "屏山", "stop_name_en": "Ping Shan", "stop_code": "PIS", "stop_id": "400", "ref": "400", "platform_key": "lrt_PIS_400_0", "mode": "lrt", "station_code": "PIS"}, "geometry": {"type": "Point", "coordinates": [114.0117742, 22.4427957]}}, {"type": "Feature", "properties": {"name_en": "Ping Shan · stop 400", "name_zh": "屏山", "stop_name_en": "Ping Shan", "stop_code": "PIS", "stop_id": "400", "ref": "400", "platform_key": "lrt_PIS_400_1", "mode": "lrt", "station_code": "PIS"}, "geometry": {"type": "Point", "coordinates": [114.0123818, 22.4429984]}}, {"type": "Feature", "properties": {"name_en": "Prime View · stop 330", "name_zh": "景峰", "stop_name_en": "Prime View", "stop_code": "PRV", "stop_id": "330", "ref": "330", "platform_key": "lrt_PRV_330_0", "mode": "lrt", "station_code": "PRV"}, "geometry": {"type": "Point", "coordinates": [113.9794346, 22.4031419]}}, {"type": "Feature", "properties": {"name_en": "Prime View · stop 330", "name_zh": "景峰", "stop_name_en": "Prime View", "stop_code": "PRV", "stop_id": "330", "ref": "330", "platform_key": "lrt_PRV_330_1", "mode": "lrt", "station_code": "PRV"}, "geometry": {"type": "Point", "coordinates": [113.979469, 22.4031278]}}, {"type": "Feature", "properties": {"name_en": "Pui To · stop 300", "name_zh": "杯渡", "stop_name_en": "Pui To", "stop_code": "PUT", "stop_id": "300", "ref": "300", "platform_key": "lrt_PUT_300_0", "mode": "lrt", "station_code": "PUT"}, "geometry": {"type": "Point", "coordinates": [113.9767772, 22.3947007]}}, {"type": "Feature", "properties": {"name_en": "Pui To · stop 300", "name_zh": "杯渡", "stop_name_en": "Pui To", "stop_code": "PUT", "stop_id": "300", "ref": "300", "platform_key": "lrt_PUT_300_1", "mode": "lrt", "station_code": "PUT"}, "geometry": {"type": "Point", "coordinates": [113.9767912, 22.3946624]}}, {"type": "Feature", "properties": {"name_en": "Sam Shing · stop 920", "name_zh": "三聖", "stop_name_en": "Sam Shing", "stop_code": "SAS", "stop_id": "920", "ref": "920", "platform_key": "lrt_SAS_920_0", "mode": "lrt", "station_code": "SAS"}, "geometry": {"type": "Point", "coordinates": [113.9767297, 22.382554]}}, {"type": "Feature", "properties": {"name_en": "Sam Shing · stop 920", "name_zh": "三聖", "stop_name_en": "Sam Shing", "stop_code": "SAS", "stop_id": "920", "ref": "920", "platform_key": "lrt_SAS_920_1", "mode": "lrt", "station_code": "SAS"}, "geometry": {"type": "Point", "coordinates": [113.9766172, 22.3824804]}}, {"type": "Feature", "properties": {"name_en": "Sam Shing · stop 920", "name_zh": "三聖", "stop_name_en": "Sam Shing", "stop_code": "SAS", "stop_id": "920", "ref": "920", "platform_key": "lrt_SAS_920_2", "mode": "lrt", "station_code": "SAS"}, "geometry": {"type": "Point", "coordinates": [113.976693, 22.3827864]}}, {"type": "Feature", "properties": {"name_en": "San Hui · stop 320", "name_zh": "新墟", "stop_name_en": "San Hui", "stop_code": "SAH", "stop_id": "320", "ref": "320", "platform_key": "lrt_SAH_320_0", "mode": "lrt", "station_code": "SAH"}, "geometry": {"type": "Point", "coordinates": [113.9780179, 22.4002502]}}, {"type": "Feature", "properties": {"name_en": "San Hui · stop 320", "name_zh": "新墟", "stop_name_en": "San Hui", "stop_code": "SAH", "stop_id": "320", "ref": "320", "platform_key": "lrt_SAH_320_1", "mode": "lrt", "station_code": "SAH"}, "geometry": {"type": "Point", "coordinates": [113.9780452, 22.4002411]}}, {"type": "Feature", "properties": {"name_en": "San Wai · stop 160", "name_zh": "新圍", "stop_name_en": "San Wai", "stop_code": "SAW", "stop_id": "160", "ref": "160", "platform_key": "lrt_SAW_160_0", "mode": "lrt", "station_code": "SAW"}, "geometry": {"type": "Point", "coordinates": [113.9644748, 22.4052311]}}, {"type": "Feature", "properties": {"name_en": "San Wai · stop 160", "name_zh": "新圍", "stop_name_en": "San Wai", "stop_code": "SAW", "stop_id": "160", "ref": "160", "platform_key": "lrt_SAW_160_1", "mode": "lrt", "station_code": "SAW"}, "geometry": {"type": "Point", "coordinates": [113.9644805, 22.4052659]}}, {"type": "Feature", "properties": {"name_en": "Shan King (North) · stop 180", "name_zh": "山景 (北)", "stop_name_en": "Shan King (North)", "stop_code": "SKN", "stop_id": "180", "ref": "180", "platform_key": "lrt_SKN_180_0", "mode": "lrt", "station_code": "SKN"}, "geometry": {"type": "Point", "coordinates": [113.9666623, 22.3984819]}}, {"type": "Feature", "properties": {"name_en": "Shan King (South) · stop 190", "name_zh": "山景 (南)", "stop_name_en": "Shan King (South)", "stop_code": "SKS", "stop_id": "190", "ref": "190", "platform_key": "lrt_SKS_190_0", "mode": "lrt", "station_code": "SKS"}, "geometry": {"type": "Point", "coordinates": [113.9660737, 22.3966967]}}, {"type": "Feature", "properties": {"name_en": "Shek Pai · stop 170", "name_zh": "石排", "stop_name_en": "Shek Pai", "stop_code": "SHP", "stop_id": "170", "ref": "170", "platform_key": "lrt_SHP_170_0", "mode": "lrt", "station_code": "SHP"}, "geometry": {"type": "Point", "coordinates": [113.967782, 22.4014161]}}, {"type": "Feature", "properties": {"name_en": "Shek Pai · stop 170", "name_zh": "石排", "stop_name_en": "Shek Pai", "stop_code": "SHP", "stop_id": "170", "ref": "170", "platform_key": "lrt_SHP_170_1", "mode": "lrt", "station_code": "SHP"}, "geometry": {"type": "Point", "coordinates": [113.9677387, 22.4014218]}}, {"type": "Feature", "properties": {"name_en": "Shui Pin Wai · stop 560", "name_zh": "水邊圍", "stop_name_en": "Shui Pin Wai", "stop_code": "SPW", "stop_id": "560", "ref": "560", "platform_key": "lrt_SPW_560_0", "mode": "lrt", "station_code": "SPW"}, "geometry": {"type": "Point", "coordinates": [114.0199068, 22.4444307]}}, {"type": "Feature", "properties": {"name_en": "Shui Pin Wai · stop 560", "name_zh": "水邊圍", "stop_name_en": "Shui Pin Wai", "stop_code": "SPW", "stop_id": "560", "ref": "560", "platform_key": "lrt_SPW_560_1", "mode": "lrt", "station_code": "SPW"}, "geometry": {"type": "Point", "coordinates": [114.0204769, 22.4444986]}}, {"type": "Feature", "properties": {"name_en": "Siu Hei · stop 240", "name_zh": "兆禧", "stop_name_en": "Siu Hei", "stop_code": "SHE", "stop_id": "240", "ref": "240", "platform_key": "lrt_SHE_240_0", "mode": "lrt", "station_code": "SHE"}, "geometry": {"type": "Point", "coordinates": [113.9668826, 22.3752432]}}, {"type": "Feature", "properties": {"name_en": "Siu Hei · stop 240", "name_zh": "兆禧", "stop_name_en": "Siu Hei", "stop_code": "SHE", "stop_id": "240", "ref": "240", "platform_key": "lrt_SHE_240_1", "mode": "lrt", "station_code": "SHE"}, "geometry": {"type": "Point", "coordinates": [113.9668501, 22.3752272]}}, {"type": "Feature", "properties": {"name_en": "Siu Hong · stop 100", "name_zh": "兆康", "stop_name_en": "Siu Hong", "stop_code": "SHL", "stop_id": "100", "ref": "100", "platform_key": "lrt_SHL_100_0", "mode": "lrt", "station_code": "SHL"}, "geometry": {"type": "Point", "coordinates": [113.9784408, 22.4119631]}}, {"type": "Feature", "properties": {"name_en": "Siu Hong · stop 100", "name_zh": "兆康", "stop_name_en": "Siu Hong", "stop_code": "SHL", "stop_id": "100", "ref": "100", "platform_key": "lrt_SHL_100_1", "mode": "lrt", "station_code": "SHL"}, "geometry": {"type": "Point", "coordinates": [113.9784003, 22.4119738]}}, {"type": "Feature", "properties": {"name_en": "Siu Hong · stop 100", "name_zh": "兆康", "stop_name_en": "Siu Hong", "stop_code": "SHL", "stop_id": "100", "ref": "100", "platform_key": "lrt_SHL_100_2", "mode": "lrt", "station_code": "SHL"}, "geometry": {"type": "Point", "coordinates": [113.9780884, 22.4118129]}}, {"type": "Feature", "properties": {"name_en": "Siu Hong · stop 100", "name_zh": "兆康", "stop_name_en": "Siu Hong", "stop_code": "SHL", "stop_id": "100", "ref": "100", "platform_key": "lrt_SHL_100_3", "mode": "lrt", "station_code": "SHL"}, "geometry": {"type": "Point", "coordinates": [113.9781323, 22.4118367]}}, {"type": "Feature", "properties": {"name_en": "Siu Hong · stop 100", "name_zh": "兆康", "stop_name_en": "Siu Hong", "stop_code": "SHL", "stop_id": "100", "ref": "100", "platform_key": "lrt_SHL_100_4", "mode": "lrt", "station_code": "SHL"}, "geometry": {"type": "Point", "coordinates": [113.9782588, 22.4122446]}}, {"type": "Feature", "properties": {"name_en": "Siu Hong · stop 100", "name_zh": "兆康", "stop_name_en": "Siu Hong", "stop_code": "SHL", "stop_id": "100", "ref": "100", "platform_key": "lrt_SHL_100_5", "mode": "lrt", "station_code": "SHL"}, "geometry": {"type": "Point", "coordinates": [113.9782362, 22.4122803]}}, {"type": "Feature", "properties": {"name_en": "Siu Lun · stop 265", "name_zh": "兆麟", "stop_name_en": "Siu Lun", "stop_code": "SIL", "stop_id": "265", "ref": "265", "platform_key": "lrt_SIL_265_0", "mode": "lrt", "station_code": "SIL"}, "geometry": {"type": "Point", "coordinates": [113.9750578, 22.3845814]}}, {"type": "Feature", "properties": {"name_en": "Siu Lun · stop 265", "name_zh": "兆麟", "stop_name_en": "Siu Lun", "stop_code": "SIL", "stop_id": "265", "ref": "265", "platform_key": "lrt_SIL_265_1", "mode": "lrt", "station_code": "SIL"}, "geometry": {"type": "Point", "coordinates": [113.975019, 22.3845834]}}, {"type": "Feature", "properties": {"name_en": "Tai Hing (North) · stop 212", "name_zh": "大興 (北)", "stop_name_en": "Tai Hing (North)", "stop_code": "THN", "stop_id": "212", "ref": "212", "platform_key": "lrt_THN_212_0", "mode": "lrt", "station_code": "THN"}, "geometry": {"type": "Point", "coordinates": [113.9704597, 22.4039179]}}, {"type": "Feature", "properties": {"name_en": "Tai Hing (North) · stop 212", "name_zh": "大興 (北)", "stop_name_en": "Tai Hing (North)", "stop_code": "THN", "stop_id": "212", "ref": "212", "platform_key": "lrt_THN_212_1", "mode": "lrt", "station_code": "THN"}, "geometry": {"type": "Point", "coordinates": [113.9699703, 22.4045658]}}, {"type": "Feature", "properties": {"name_en": "Tai Hing (South) · stop 220", "name_zh": "大興 (南)", "stop_name_en": "Tai Hing (South)", "stop_code": "THS", "stop_id": "220", "ref": "220", "platform_key": "lrt_THS_220_0", "mode": "lrt", "station_code": "THS"}, "geometry": {"type": "Point", "coordinates": [113.9719894, 22.4027052]}}, {"type": "Feature", "properties": {"name_en": "Tai Hing (South) · stop 220", "name_zh": "大興 (南)", "stop_name_en": "Tai Hing (South)", "stop_code": "THS", "stop_id": "220", "ref": "220", "platform_key": "lrt_THS_220_1", "mode": "lrt", "station_code": "THS"}, "geometry": {"type": "Point", "coordinates": [113.9720476, 22.4027927]}}, {"type": "Feature", "properties": {"name_en": "Tai Tong Road · stop 590", "name_zh": "大棠路", "stop_name_en": "Tai Tong Road", "stop_code": "TTR", "stop_id": "590", "ref": "590", "platform_key": "lrt_TTR_590_0", "mode": "lrt", "station_code": "TTR"}, "geometry": {"type": "Point", "coordinates": [114.0300285, 22.4444481]}}, {"type": "Feature", "properties": {"name_en": "Tai Tong Road · stop 590", "name_zh": "大棠路", "stop_name_en": "Tai Tong Road", "stop_code": "TTR", "stop_id": "590", "ref": "590", "platform_key": "lrt_TTR_590_1", "mode": "lrt", "station_code": "TTR"}, "geometry": {"type": "Point", "coordinates": [114.0289746, 22.4445026]}}, {"type": "Feature", "properties": {"name_en": "Tin Fu · stop 480", "name_zh": "天富", "stop_name_en": "Tin Fu", "stop_code": "TFU", "stop_id": "480", "ref": "480", "platform_key": "lrt_TFU_480_0", "mode": "lrt", "station_code": "TFU"}, "geometry": {"type": "Point", "coordinates": [113.9976819, 22.4645568]}}, {"type": "Feature", "properties": {"name_en": "Tin Fu · stop 480", "name_zh": "天富", "stop_name_en": "Tin Fu", "stop_code": "TFU", "stop_id": "480", "ref": "480", "platform_key": "lrt_TFU_480_1", "mode": "lrt", "station_code": "TFU"}, "geometry": {"type": "Point", "coordinates": [113.9976446, 22.4645667]}}, {"type": "Feature", "properties": {"name_en": "Tin Heng · stop 540", "name_zh": "天恒", "stop_name_en": "Tin Heng", "stop_code": "THE", "stop_id": "540", "ref": "540", "platform_key": "lrt_THE_540_0", "mode": "lrt", "station_code": "THE"}, "geometry": {"type": "Point", "coordinates": [114.0007733, 22.4697143]}}, {"type": "Feature", "properties": {"name_en": "Tin Heng · stop 540", "name_zh": "天恒", "stop_name_en": "Tin Heng", "stop_code": "THE", "stop_id": "540", "ref": "540", "platform_key": "lrt_THE_540_1", "mode": "lrt", "station_code": "THE"}, "geometry": {"type": "Point", "coordinates": [114.0007447, 22.4697388]}}, {"type": "Feature", "properties": {"name_en": "Tin King · stop 140", "name_zh": "田景", "stop_name_en": "Tin King", "stop_code": "TNK", "stop_id": "140", "ref": "140", "platform_key": "lrt_TNK_140_0", "mode": "lrt", "station_code": "TNK"}, "geometry": {"type": "Point", "coordinates": [113.9664466, 22.4076858]}}, {"type": "Feature", "properties": {"name_en": "Tin King · stop 140", "name_zh": "田景", "stop_name_en": "Tin King", "stop_code": "TNK", "stop_id": "140", "ref": "140", "platform_key": "lrt_TNK_140_1", "mode": "lrt", "station_code": "TNK"}, "geometry": {"type": "Point", "coordinates": [113.9664372, 22.4076484]}}, {"type": "Feature", "properties": {"name_en": "Tin King · stop 140", "name_zh": "田景", "stop_name_en": "Tin King", "stop_code": "TNK", "stop_id": "140", "ref": "140", "platform_key": "lrt_TNK_140_2", "mode": "lrt", "station_code": "TNK"}, "geometry": {"type": "Point", "coordinates": [113.9663625, 22.4079047]}}, {"type": "Feature", "properties": {"name_en": "Tin Sau · stop 520", "name_zh": "天秀", "stop_name_en": "Tin Sau", "stop_code": "TSA", "stop_id": "520", "ref": "520", "platform_key": "lrt_TSA_520_0", "mode": "lrt", "station_code": "TSA"}, "geometry": {"type": "Point", "coordinates": [114.0029157, 22.4655122]}}, {"type": "Feature", "properties": {"name_en": "Tin Sau · stop 520", "name_zh": "天秀", "stop_name_en": "Tin Sau", "stop_code": "TSA", "stop_id": "520", "ref": "520", "platform_key": "lrt_TSA_520_1", "mode": "lrt", "station_code": "TSA"}, "geometry": {"type": "Point", "coordinates": [114.0028777, 22.4655254]}}, {"type": "Feature", "properties": {"name_en": "Tin Shui · stop 460", "name_zh": "天瑞", "stop_name_en": "Tin Shui", "stop_code": "TSU", "stop_id": "460", "ref": "460", "platform_key": "lrt_TSU_460_0", "mode": "lrt", "station_code": "TSU"}, "geometry": {"type": "Point", "coordinates": [113.9993853, 22.4558814]}}, {"type": "Feature", "properties": {"name_en": "Tin Shui · stop 460", "name_zh": "天瑞", "stop_name_en": "Tin Shui", "stop_code": "TSU", "stop_id": "460", "ref": "460", "platform_key": "lrt_TSU_460_1", "mode": "lrt", "station_code": "TSU"}, "geometry": {"type": "Point", "coordinates": [113.9994144, 22.4558962]}}, {"type": "Feature", "properties": {"name_en": "Tin Shui Wai · stop 430", "name_zh": "天水圍", "stop_name_en": "Tin Shui Wai", "stop_code": "TSL", "stop_id": "430", "ref": "430", "platform_key": "lrt_TSL_430_0", "mode": "lrt", "station_code": "TSL"}, "geometry": {"type": "Point", "coordinates": [114.0060439, 22.4493741]}}, {"type": "Feature", "properties": {"name_en": "Tin Shui Wai · stop 430", "name_zh": "天水圍", "stop_name_en": "Tin Shui Wai", "stop_code": "TSL", "stop_id": "430", "ref": "430", "platform_key": "lrt_TSL_430_1", "mode": "lrt", "station_code": "TSL"}, "geometry": {"type": "Point", "coordinates": [114.006001, 22.4494045]}}, {"type": "Feature", "properties": {"name_en": "Tin Shui Wai · stop 430", "name_zh": "天水圍", "stop_name_en": "Tin Shui Wai", "stop_code": "TSL", "stop_id": "430", "ref": "430", "platform_key": "lrt_TSL_430_2", "mode": "lrt", "station_code": "TSL"}, "geometry": {"type": "Point", "coordinates": [114.00591, 22.4494881]}}, {"type": "Feature", "properties": {"name_en": "Tin Tsz · stop 435", "name_zh": "天慈", "stop_name_en": "Tin Tsz", "stop_code": "TIT", "stop_id": "435", "ref": "435", "platform_key": "lrt_TIT_435_0", "mode": "lrt", "station_code": "TIT"}, "geometry": {"type": "Point", "coordinates": [114.0060687, 22.4527625]}}, {"type": "Feature", "properties": {"name_en": "Tin Tsz · stop 435", "name_zh": "天慈", "stop_name_en": "Tin Tsz", "stop_code": "TIT", "stop_id": "435", "ref": "435", "platform_key": "lrt_TIT_435_1", "mode": "lrt", "station_code": "TIT"}, "geometry": {"type": "Point", "coordinates": [114.006036, 22.4527465]}}, {"type": "Feature", "properties": {"name_en": "Tin Wu · stop 450", "name_zh": "天湖", "stop_name_en": "Tin Wu", "stop_code": "TWU", "stop_id": "450", "ref": "450", "platform_key": "lrt_TWU_450_0", "mode": "lrt", "station_code": "TWU"}, "geometry": {"type": "Point", "coordinates": [114.0057105, 22.454932]}}, {"type": "Feature", "properties": {"name_en": "Tin Wu · stop 450", "name_zh": "天湖", "stop_name_en": "Tin Wu", "stop_code": "TWU", "stop_id": "450", "ref": "450", "platform_key": "lrt_TWU_450_1", "mode": "lrt", "station_code": "TWU"}, "geometry": {"type": "Point", "coordinates": [114.0056769, 22.4549411]}}, {"type": "Feature", "properties": {"name_en": "Tin Yat · stop 550", "name_zh": "天逸", "stop_name_en": "Tin Yat", "stop_code": "TYA", "stop_id": "550", "ref": "550", "platform_key": "lrt_TYA_550_0", "mode": "lrt", "station_code": "TYA"}, "geometry": {"type": "Point", "coordinates": [113.9988215, 22.4670133]}}, {"type": "Feature", "properties": {"name_en": "Tin Yat · stop 550", "name_zh": "天逸", "stop_name_en": "Tin Yat", "stop_code": "TYA", "stop_id": "550", "ref": "550", "platform_key": "lrt_TYA_550_1", "mode": "lrt", "station_code": "TYA"}, "geometry": {"type": "Point", "coordinates": [113.9987878, 22.4670313]}}, {"type": "Feature", "properties": {"name_en": "Tin Yat · stop 550", "name_zh": "天逸", "stop_name_en": "Tin Yat", "stop_code": "TYA", "stop_id": "550", "ref": "550", "platform_key": "lrt_TYA_550_2", "mode": "lrt", "station_code": "TYA"}, "geometry": {"type": "Point", "coordinates": [113.9992407, 22.4667895]}}, {"type": "Feature", "properties": {"name_en": "Tin Yat · stop 550", "name_zh": "天逸", "stop_name_en": "Tin Yat", "stop_code": "TYA", "stop_id": "550", "ref": "550", "platform_key": "lrt_TYA_550_3", "mode": "lrt", "station_code": "TYA"}, "geometry": {"type": "Point", "coordinates": [113.9993185, 22.4667478]}}, {"type": "Feature", "properties": {"name_en": "Tin Yat · stop 550", "name_zh": "天逸", "stop_name_en": "Tin Yat", "stop_code": "TYA", "stop_id": "550", "ref": "550", "platform_key": "lrt_TYA_550_4", "mode": "lrt", "station_code": "TYA"}, "geometry": {"type": "Point", "coordinates": [113.9991569, 22.4668216]}}, {"type": "Feature", "properties": {"name_en": "Tin Yiu · stop 445", "name_zh": "天耀", "stop_name_en": "Tin Yiu", "stop_code": "TIY", "stop_id": "445", "ref": "445", "platform_key": "lrt_TIY_445_0", "mode": "lrt", "station_code": "TIY"}, "geometry": {"type": "Point", "coordinates": [114.0027493, 22.4503513]}}, {"type": "Feature", "properties": {"name_en": "Tin Yiu · stop 445", "name_zh": "天耀", "stop_name_en": "Tin Yiu", "stop_code": "TIY", "stop_id": "445", "ref": "445", "platform_key": "lrt_TIY_445_1", "mode": "lrt", "station_code": "TIY"}, "geometry": {"type": "Point", "coordinates": [114.0027833, 22.4503653]}}, {"type": "Feature", "properties": {"name_en": "Tin Yuet · stop 510", "name_zh": "天悅", "stop_name_en": "Tin Yuet", "stop_code": "TYU", "stop_id": "510", "ref": "510", "platform_key": "lrt_TYU_510_0", "mode": "lrt", "station_code": "TYU"}, "geometry": {"type": "Point", "coordinates": [114.001634, 22.4627679]}}, {"type": "Feature", "properties": {"name_en": "Tin Yuet · stop 510", "name_zh": "天悅", "stop_name_en": "Tin Yuet", "stop_code": "TYU", "stop_id": "510", "ref": "510", "platform_key": "lrt_TYU_510_1", "mode": "lrt", "station_code": "TYU"}, "geometry": {"type": "Point", "coordinates": [114.001595, 22.4627676]}}, {"type": "Feature", "properties": {"name_en": "Tong Fong Tsuen · stop 390", "name_zh": "塘坊村", "stop_name_en": "Tong Fong Tsuen", "stop_code": "TOF", "stop_id": "390", "ref": "390", "platform_key": "lrt_TOF_390_0", "mode": "lrt", "station_code": "TOF"}, "geometry": {"type": "Point", "coordinates": [114.0070936, 22.4400905]}}, {"type": "Feature", "properties": {"name_en": "Tong Fong Tsuen · stop 390", "name_zh": "塘坊村", "stop_name_en": "Tong Fong Tsuen", "stop_code": "TOF", "stop_id": "390", "ref": "390", "platform_key": "lrt_TOF_390_1", "mode": "lrt", "station_code": "TOF"}, "geometry": {"type": "Point", "coordinates": [114.0076412, 22.4403959]}}, {"type": "Feature", "properties": {"name_en": "Town Centre · stop 280", "name_zh": "市中心", "stop_name_en": "Town Centre", "stop_code": "TOC", "stop_id": "280", "ref": "280", "platform_key": "lrt_TOC_280_0", "mode": "lrt", "station_code": "TOC"}, "geometry": {"type": "Point", "coordinates": [113.9749779, 22.3913397]}}, {"type": "Feature", "properties": {"name_en": "Town Centre · stop 280", "name_zh": "市中心", "stop_name_en": "Town Centre", "stop_code": "TOC", "stop_id": "280", "ref": "280", "platform_key": "lrt_TOC_280_1", "mode": "lrt", "station_code": "TOC"}, "geometry": {"type": "Point", "coordinates": [113.9748608, 22.3913037]}}, {"type": "Feature", "properties": {"name_en": "Town Centre · stop 280", "name_zh": "市中心", "stop_name_en": "Town Centre", "stop_code": "TOC", "stop_id": "280", "ref": "280", "platform_key": "lrt_TOC_280_2", "mode": "lrt", "station_code": "TOC"}, "geometry": {"type": "Point", "coordinates": [113.9749429, 22.3913211]}}, {"type": "Feature", "properties": {"name_en": "Town Centre · stop 280", "name_zh": "市中心", "stop_name_en": "Town Centre", "stop_code": "TOC", "stop_id": "280", "ref": "280", "platform_key": "lrt_TOC_280_3", "mode": "lrt", "station_code": "TOC"}, "geometry": {"type": "Point", "coordinates": [113.9750666, 22.3913686]}}, {"type": "Feature", "properties": {"name_en": "Tsing Shan Tsuen · stop 040", "name_zh": "青山村", "stop_name_en": "Tsing Shan Tsuen", "stop_code": "TSS", "stop_id": "40", "ref": "040", "platform_key": "lrt_TSS_040_0", "mode": "lrt", "station_code": "TSS"}, "geometry": {"type": "Point", "coordinates": [113.9669957, 22.3903668]}}, {"type": "Feature", "properties": {"name_en": "Tsing Shan Tsuen · stop 040", "name_zh": "青山村", "stop_name_en": "Tsing Shan Tsuen", "stop_code": "TSS", "stop_id": "40", "ref": "040", "platform_key": "lrt_TSS_040_1", "mode": "lrt", "station_code": "TSS"}, "geometry": {"type": "Point", "coordinates": [113.9672929, 22.3909179]}}, {"type": "Feature", "properties": {"name_en": "Tsing Wun · stop 050", "name_zh": "青雲", "stop_name_en": "Tsing Wun", "stop_code": "TWN", "stop_id": "50", "ref": "050", "platform_key": "lrt_TWN_050_0", "mode": "lrt", "station_code": "TWN"}, "geometry": {"type": "Point", "coordinates": [113.9674427, 22.394355]}}, {"type": "Feature", "properties": {"name_en": "Tsing Wun · stop 050", "name_zh": "青雲", "stop_name_en": "Tsing Wun", "stop_code": "TWN", "stop_id": "50", "ref": "050", "platform_key": "lrt_TWN_050_1", "mode": "lrt", "station_code": "TWN"}, "geometry": {"type": "Point", "coordinates": [113.9674801, 22.3943558]}}, {"type": "Feature", "properties": {"name_en": "Tuen Mun · stop 295", "name_zh": "屯門", "stop_name_en": "Tuen Mun", "stop_code": "TML", "stop_id": "295", "ref": "295", "platform_key": "lrt_TML_295_0", "mode": "lrt", "station_code": "TML"}, "geometry": {"type": "Point", "coordinates": [113.9730817, 22.3938547]}}, {"type": "Feature", "properties": {"name_en": "Tuen Mun · stop 295", "name_zh": "屯門", "stop_name_en": "Tuen Mun", "stop_code": "TML", "stop_id": "295", "ref": "295", "platform_key": "lrt_TML_295_1", "mode": "lrt", "station_code": "TML"}, "geometry": {"type": "Point", "coordinates": [113.9730692, 22.3938077]}}, {"type": "Feature", "properties": {"name_en": "Tuen Mun Ferry Pier · stop 001", "name_zh": "屯門碼頭", "stop_name_en": "Tuen Mun Ferry Pier", "stop_code": "FEP", "stop_id": "1", "ref": "001", "platform_key": "lrt_FEP_001_0", "mode": "lrt", "station_code": "FEP"}, "geometry": {"type": "Point", "coordinates": [113.9666595, 22.3725334]}}, {"type": "Feature", "properties": {"name_en": "Tuen Mun Ferry Pier · stop 001", "name_zh": "屯門碼頭", "stop_name_en": "Tuen Mun Ferry Pier", "stop_code": "FEP", "stop_id": "1", "ref": "001", "platform_key": "lrt_FEP_001_1", "mode": "lrt", "station_code": "FEP"}, "geometry": {"type": "Point", "coordinates": [113.966538, 22.3725607]}}, {"type": "Feature", "properties": {"name_en": "Tuen Mun Ferry Pier · stop 001", "name_zh": "屯門碼頭", "stop_name_en": "Tuen Mun Ferry Pier", "stop_code": "FEP", "stop_id": "1", "ref": "001", "platform_key": "lrt_FEP_001_2", "mode": "lrt", "station_code": "FEP"}, "geometry": {"type": "Point", "coordinates": [113.9664154, 22.3725946]}}, {"type": "Feature", "properties": {"name_en": "Tuen Mun Ferry Pier · stop 001", "name_zh": "屯門碼頭", "stop_name_en": "Tuen Mun Ferry Pier", "stop_code": "FEP", "stop_id": "1", "ref": "001", "platform_key": "lrt_FEP_001_3", "mode": "lrt", "station_code": "FEP"}, "geometry": {"type": "Point", "coordinates": [113.96629, 22.3726294]}}, {"type": "Feature", "properties": {"name_en": "Tuen Mun Ferry Pier · stop 001", "name_zh": "屯門碼頭", "stop_name_en": "Tuen Mun Ferry Pier", "stop_code": "FEP", "stop_id": "1", "ref": "001", "platform_key": "lrt_FEP_001_4", "mode": "lrt", "station_code": "FEP"}, "geometry": {"type": "Point", "coordinates": [113.9670515, 22.3726799]}}, {"type": "Feature", "properties": {"name_en": "Tuen Mun Hospital · stop 090", "name_zh": "屯門醫院", "stop_name_en": "Tuen Mun Hospital", "stop_code": "TMH", "stop_id": "90", "ref": "090", "platform_key": "lrt_TMH_090_0", "mode": "lrt", "station_code": "TMH"}, "geometry": {"type": "Point", "coordinates": [113.9770954, 22.4078144]}}, {"type": "Feature", "properties": {"name_en": "Tuen Mun Hospital · stop 090", "name_zh": "屯門醫院", "stop_name_en": "Tuen Mun Hospital", "stop_code": "TMH", "stop_id": "90", "ref": "090", "platform_key": "lrt_TMH_090_1", "mode": "lrt", "station_code": "TMH"}, "geometry": {"type": "Point", "coordinates": [113.9771307, 22.4078086]}}, {"type": "Feature", "properties": {"name_en": "Wetland Park · stop 530", "name_zh": "濕地公園", "stop_name_en": "Wetland Park", "stop_code": "WEP", "stop_id": "530", "ref": "530", "platform_key": "lrt_WEP_530_0", "mode": "lrt", "station_code": "WEP"}, "geometry": {"type": "Point", "coordinates": [114.0025104, 22.4695421]}}, {"type": "Feature", "properties": {"name_en": "Wetland Park · stop 530", "name_zh": "濕地公園", "stop_name_en": "Wetland Park", "stop_code": "WEP", "stop_id": "530", "ref": "530", "platform_key": "lrt_WEP_530_1", "mode": "lrt", "station_code": "WEP"}, "geometry": {"type": "Point", "coordinates": [114.0025471, 22.4695513]}}, {"type": "Feature", "properties": {"name_en": "Yau Oi · stop 275", "name_zh": "友愛", "stop_name_en": "Yau Oi", "stop_code": "YAO", "stop_id": "275", "ref": "275", "platform_key": "lrt_YAO_275_0", "mode": "lrt", "station_code": "YAO"}, "geometry": {"type": "Point", "coordinates": [113.9735852, 22.3867019]}}, {"type": "Feature", "properties": {"name_en": "Yuen Long · stop 600", "name_zh": "元朗", "stop_name_en": "Yuen Long", "stop_code": "YLL", "stop_id": "600", "ref": "600", "platform_key": "lrt_YLL_600_0", "mode": "lrt", "station_code": "YLL"}, "geometry": {"type": "Point", "coordinates": [114.0346217, 22.4457565]}}, {"type": "Feature", "properties": {"name_en": "Yuen Long · stop 600", "name_zh": "元朗", "stop_name_en": "Yuen Long", "stop_code": "YLL", "stop_id": "600", "ref": "600", "platform_key": "lrt_YLL_600_1", "mode": "lrt", "station_code": "YLL"}, "geometry": {"type": "Point", "coordinates": [114.034664, 22.4456917]}}, {"type": "Feature", "properties": {"name_en": "Yuen Long · stop 600", "name_zh": "元朗", "stop_name_en": "Yuen Long", "stop_code": "YLL", "stop_id": "600", "ref": "600", "platform_key": "lrt_YLL_600_2", "mode": "lrt", "station_code": "YLL"}, "geometry": {"type": "Point", "coordinates": [114.0347843, 22.4455614]}}, {"type": "Feature", "properties": {"name_en": "Yuen Long · stop 600", "name_zh": "元朗", "stop_name_en": "Yuen Long", "stop_code": "YLL", "stop_id": "600", "ref": "600", "platform_key": "lrt_YLL_600_3", "mode": "lrt", "station_code": "YLL"}, "geometry": {"type": "Point", "coordinates": [114.0348675, 22.4454842]}}, {"type": "Feature", "properties": {"name_en": "Yuen Long · stop 600", "name_zh": "元朗", "stop_name_en": "Yuen Long", "stop_code": "YLL", "stop_id": "600", "ref": "600", "platform_key": "lrt_YLL_600_4", "mode": "lrt", "station_code": "YLL"}, "geometry": {"type": "Point", "coordinates": [114.0347252, 22.4456269]}}, {"type": "Feature", "properties": {"name_en": "Tin Wing · Platform 1", "name_zh": "天榮", "stop_name_en": "Tin Wing", "stop_code": "TWI", "stop_id": "500", "ref": "1", "platform_key": "lrt_TWI_1_0", "mode": "lrt", "station_code": "TWI", "note": "YOHO West indoor; P1 = Tin Shing / Ginza face"}, "geometry": {"type": "Point", "coordinates": [114.00248, 22.45978]}}, {"type": "Feature", "properties": {"name_en": "Tin Wing · Platform 3", "name_zh": "天榮", "stop_name_en": "Tin Wing", "stop_code": "TWI", "stop_id": "500", "ref": "3", "platform_key": "lrt_TWI_3_1", "mode": "lrt", "station_code": "TWI", "note": "YOHO West indoor; P1 = Tin Shing / Ginza face"}, "geometry": {"type": "Point", "coordinates": [114.00228, 22.45995]}}, {"type": "Feature", "properties": {"name_en": "Tin Wing · Platform 4", "name_zh": "天榮", "stop_name_en": "Tin Wing", "stop_code": "TWI", "stop_id": "500", "ref": "4", "platform_key": "lrt_TWI_4_2", "mode": "lrt", "station_code": "TWI", "note": "YOHO West indoor; P1 = Tin Shing / Ginza face"}, "geometry": {"type": "Point", "coordinates": [114.00212, 22.46008]}}]}